[{"OBJECT_NAME":"STARLINK-6072","OBJECT_ID":"2023-078AR","EPOCH":"2026-03-09T21:53:39.802272","MEAN_MOTION":14.98338105,"ECCENTRICITY":0.00026964,"INCLINATION":69.9991,"RA_OF_ASC_NODE":303.7408,"ARG_OF_PERICENTER":256.3468,"MEAN_ANOMALY":103.7391,"EPHEMERIS_TYPE":0,"CLASSIFICATION_TYPE":"U","NORAD_CAT_ID":56806,"ELEMENT_SET_NO":999,"REV_AT_EPOCH":15368,"BSTAR":6.6292384e-5,"MEAN_MOTION_DOT":6.98e-6,"MEAN_MOTION_DDOT":0},{"OBJECT_NAME":"ISTSAT-1","OBJECT_ID":"2024-128D","EPOCH":"2026-03-09T22:00:43.506144","MEAN_MOTION":15.10231455,"ECCENTRICITY":0.00491528,"INCLINATION":61.9882,"RA_OF_ASC_NODE":196.777,"ARG_OF_PERICENTER":111.8391,"MEAN_ANOMALY":248.7942,"EPHEMERIS_TYPE":0,"CLASSIFICATION_TYPE":"U","NORAD_CAT_ID":60238,"ELEMENT_SET_NO":999,"REV_AT_EPOCH":9146,"BSTAR":0.00064802971,"MEAN_MOTION_DOT":0.0001075,"MEAN_MOTION_DDOT":0}]
